{
  "type": "FeatureCollection",
  "features": [
    {
      "type": "Feature",
      "properties": {
        "norad_id": 67053,
        "name": "STARLINK-35739",
        "group": "last-30-days",
        "lat": 34.32701937346954,
        "lon": 144.95901399795414,
        "alt_km": 367.4909962125612,
        "timestamp": "2025-12-26T12:57:37.978856+00:00",
        "meta_object_name": "STARLINK-35739",
        "meta_object_id": "2025-294Z",
        "meta_epoch": "2025-12-26T06:00:02.999808",
        "meta_mean_motion": 15.66622246,
        "meta_eccentricity": 0.00012851,
        "meta_inclination": 43.0003,
        "meta_ra_of_asc_node": 99.5749,
        "meta_arg_of_pericenter": 268.8398,
        "meta_mean_anomaly": 310.1767,
        "meta_ephemeris_type": 0,
        "meta_classification_type": "U",
        "meta_norad_cat_id": 67053,
        "meta_element_set_no": 999,
        "meta_rev_at_epoch": 212,
        "meta_bstar": -0.020211336,
        "meta_mean_motion_dot": -0.0192778,
        "meta_mean_motion_ddot": 0,
        "tle_line1": "1 67053U 25294Z   25360.25003472 -.01927780  00000+0 -20211-1 0  9994",
        "tle_line2": "2 67053  43.0003  99.5749 0001285 268.8398 310.1767 15.66622246  2126"
      },
      "geometry": {
        "type": "Point",
        "coordinates": [
          144.95901399795414,
          34.32701937346954
        ]
      }
    },
    {
      "type": "Feature",
      "properties": {
        "norad_id": 67054,
        "name": "STARLINK-35754",
        "group": "last-30-days",
        "lat": 35.31150127766477,
        "lon": 147.3106680027184,
        "alt_km": 367.436792157685,
        "timestamp": "2025-12-26T12:57:37.978867+00:00",
        "meta_object_name": "STARLINK-35754",
        "meta_object_id": "2025-294AA",
        "meta_epoch": "2025-12-26T06:00:02.999808",
        "meta_mean_motion": 15.66606218,
        "meta_eccentricity": 0.00013191,
        "meta_inclination": 43.0001,
        "meta_ra_of_asc_node": 99.5694,
        "meta_arg_of_pericenter": 268.535,
        "meta_mean_anomaly": 312.6689,
        "meta_ephemeris_type": 0,
        "meta_classification_type": "U",
        "meta_norad_cat_id": 67054,
        "meta_element_set_no": 999,
        "meta_rev_at_epoch": 228,
        "meta_bstar": -0.020283272,
        "meta_mean_motion_dot": -0.01932747,
        "meta_mean_motion_ddot": 0,
        "tle_line1": "1 67054U 25294AA  25360.25003472 -.01932747  00000+0 -20283-1 0  9993",
        "tle_line2": "2 67054  43.0001  99.5694 0001319 268.5350 312.6689 15.66606218  2285"
      },
      "geometry": {
        "type": "Point",
        "coordinates": [
          147.3106680027184,
          35.31150127766477
        ]
      }
    },
    {
      "type": "Feature",
      "properties": {
        "norad_id": 67055,
        "name": "STARLINK-35790",
        "group": "last-30-days",
        "lat": 36.23082747808874,
        "lon": 149.66939957074317,
        "alt_km": 367.3801387238391,
        "timestamp": "2025-12-26T12:57:37.978879+00:00",
        "meta_object_name": "STARLINK-35790",
        "meta_object_id": "2025-294AB",
        "meta_epoch": "2025-12-26T06:00:02.999808",
        "meta_mean_motion": 15.66588465,
        "meta_eccentricity": 0.00013259,
        "meta_inclination": 42.9999,
        "meta_ra_of_asc_node": 99.5632,
        "meta_arg_of_pericenter": 266.8561,
        "meta_mean_anomaly": 316.4914,
        "meta_ephemeris_type": 0,
        "meta_classification_type": "U",
        "meta_norad_cat_id": 67055,
        "meta_element_set_no": 999,
        "meta_rev_at_epoch": 247,
        "meta_bstar": -0.020268902,
        "meta_mean_motion_dot": -0.01930303,
        "meta_mean_motion_ddot": 0,
        "tle_line1": "1 67055U 25294AB  25360.25003472 -.01930303  00000+0 -20269-1 0  9994",
        "tle_line2": "2 67055  42.9999  99.5632 0001325 266.8561 316.4914 15.66588465  2471"
      },
      "geometry": {
        "type": "Point",
        "coordinates": [
          149.66939957074317,
          36.23082747808874
        ]
      }
    },
    {
      "type": "Feature",
      "properties": {
        "norad_id": 67056,
        "name": "STARLINK-36143",
        "group": "last-30-days",
        "lat": 38.54814704974867,
        "lon": 156.58223590449538,
        "alt_km": 367.0867771603853,
        "timestamp": "2025-12-26T12:57:37.978889+00:00",
        "meta_object_name": "STARLINK-36143",
        "meta_object_id": "2025-294AC",
        "meta_epoch": "2025-12-26T06:00:02.999808",
        "meta_mean_motion": 15.66568527,
        "meta_eccentricity": 0.00012886,
        "meta_inclination": 42.9999,
        "meta_ra_of_asc_node": 99.5481,
        "meta_arg_of_pericenter": 267.241,
        "meta_mean_anomaly": 322.0904,
        "meta_ephemeris_type": 0,
        "meta_classification_type": "U",
        "meta_norad_cat_id": 67056,
        "meta_element_set_no": 999,
        "meta_rev_at_epoch": 247,
        "meta_bstar": -0.020246777,
        "meta_mean_motion_dot": -0.01927025,
        "meta_mean_motion_ddot": 0,
        "tle_line1": "1 67056U 25294AC  25360.25003472 -.01927025  00000+0 -20247-1 0  9998",
        "tle_line2": "2 67056  42.9999  99.5481 0001288 267.2410 322.0904 15.66568527  2479"
      },
      "geometry": {
        "type": "Point",
        "coordinates": [
          156.58223590449538,
          38.54814704974867
        ]
      }
    },
    {
      "type": "Feature",
      "properties": {
        "norad_id": 67057,
        "name": "STARLINK-36141",
        "group": "last-30-days",
        "lat": 37.80687871481299,
        "lon": 154.1864708114952,
        "alt_km": 367.158693816943,
        "timestamp": "2025-12-26T12:57:37.978901+00:00",
        "meta_object_name": "STARLINK-36141",
        "meta_object_id": "2025-294AD",
        "meta_epoch": "2025-12-26T06:00:02.999808",
        "meta_mean_motion": 15.6657808,
        "meta_eccentricity": 0.0001284,
        "meta_inclination": 43,
        "meta_ra_of_asc_node": 99.5534,
        "meta_arg_of_pericenter": 267.2226,
        "meta_mean_anomaly": 320.0734,
        "meta_ephemeris_type": 0,
        "meta_classification_type": "U",
        "meta_norad_cat_id": 67057,
        "meta_element_set_no": 999,
        "meta_rev_at_epoch": 239,
        "meta_bstar": -0.020246235,
        "meta_mean_motion_dot": -0.01927641,
        "meta_mean_motion_ddot": 0,
        "tle_line1": "1 67057U 25294AD  25360.25003472 -.01927641  00000+0 -20246-1 0  9992",
        "tle_line2": "2 67057  43.0000  99.5534 0001284 267.2226 320.0734 15.66578080  2390"
      },
      "geometry": {
        "type": "Point",
        "coordinates": [
          154.1864708114952,
          37.80687871481299
        ]
      }
    },
    {
      "type": "Feature",
      "properties": {
        "norad_id": 67058,
        "name": "STARLINK-35767",
        "group": "last-30-days",
        "lat": 37.04917281037848,
        "lon": 151.9292127949855,
        "alt_km": 367.22556403614817,
        "timestamp": "2025-12-26T12:57:37.978911+00:00",
        "meta_object_name": "STARLINK-35767",
        "meta_object_id": "2025-294AE",
        "meta_epoch": "2025-12-26T06:00:02.999808",
        "meta_mean_motion": 15.66581209,
        "meta_eccentricity": 0.00012167,
        "meta_inclination": 43.0002,
        "meta_ra_of_asc_node": 99.5584,
        "meta_arg_of_pericenter": 266.2691,
        "meta_mean_anomaly": 319.0778,
        "meta_ephemeris_type": 0,
        "meta_classification_type": "U",
        "meta_norad_cat_id": 67058,
        "meta_element_set_no": 999,
        "meta_rev_at_epoch": 228,
        "meta_bstar": -0.02028437,
        "meta_mean_motion_dot": -0.01931019,
        "meta_mean_motion_ddot": 0,
        "tle_line1": "1 67058U 25294AE  25360.25003472 -.01931019  00000+0 -20284-1 0  9999",
        "tle_line2": "2 67058  43.0002  99.5584 0001216 266.2691 319.0778 15.66581209  2289"
      },
      "geometry": {
        "type": "Point",
        "coordinates": [
          151.9292127949855,
          37.04917281037848
        ]
      }
    },
    {
      "type": "Feature",
      "properties": {
        "norad_id": 67059,
        "name": "HULIANWANG DIGUI-119",
        "group": "last-30-days",
        "lat": 44.062001271688246,
        "lon": 79.69603869047783,
        "alt_km": 813.699685091542,
        "timestamp": "2025-12-26T12:57:37.978921+00:00",
        "meta_object_name": "HULIANWANG DIGUI-119",
        "meta_object_id": "2025-295A",
        "meta_epoch": "2025-12-26T05:41:22.844544",
        "meta_mean_motion": 14.2461737,
        "meta_eccentricity": 0.00140116,
        "meta_inclination": 50.005,
        "meta_ra_of_asc_node": 315.3085,
        "meta_arg_of_pericenter": 294.0141,
        "meta_mean_anomaly": 65.9306,
        "meta_ephemeris_type": 0,
        "meta_classification_type": "U",
        "meta_norad_cat_id": 67059,
        "meta_element_set_no": 999,
        "meta_rev_at_epoch": 204,
        "meta_bstar": 8.4513232e-05,
        "meta_mean_motion_dot": 3.8e-07,
        "meta_mean_motion_ddot": 0,
        "tle_line1": "1 67059U 25295A   25360.23706996  .00000038  00000+0  84513-4 0  9993",
        "tle_line2": "2 67059  50.0050 315.3085 0014011 294.0141  65.9306 14.24617370  2042"
      },
      "geometry": {
        "type": "Point",
        "coordinates": [
          79.69603869047783,
          44.062001271688246
        ]
      }
    }
  ]
}